start=new Date('2022-11-21T00:00:00.000Z').valueOf();
sats=[{"FILE":"3665715","COUNTRY_CODE":"US","REV_AT_EPOCH":"4038","ECCENTRICITY":"0.00023540","TIME_SYSTEM":"UTC","RA_OF_ASC_NODE":"358.0058","ARG_OF_PERICENTER":"35.0057","EPHEMERIS_TYPE":"0","OBJECT_ID":"2022-017U","MEAN_ELEMENT_THEORY":"SGP4","OBJECT_TYPE":"PAYLOAD","CENTER_NAME":"EARTH","PERIOD":"95.438","OBJECT_NAME":"STARLINK-3638","SEMIMAJOR_AXIS":"6917.911","EPOCH":"2022-11-20T19:35:07.698912","MEAN_MOTION_DDOT":"0.0000000000000","MEAN_MOTION_DOT":"0.00000968","MEAN_ANOMALY":"325.1089","RCS_SIZE":"LARGE","DECAY_DATE":null,"MEAN_MOTION":"15.08829968","SITE":"AFWTR","GP_ID":"218362411","TLE_LINE1":"1 51786U 22017U   22324.81606133  .00000968  00000-0  78976-4 0  9994","CLASSIFICATION_TYPE":"U","PERIAPSIS":"538.148","REF_FRAME":"TEME","APOAPSIS":"541.405","INCLINATION":"53.2180","TLE_LINE2":"2 51786  53.2180 358.0058 0002354  35.0057 325.1089 15.08829968 40380","ELEMENT_SET_NO":"999","BSTAR":"0.00007897600000","NORAD_CAT_ID":"51786","LAUNCH_DATE":"2022-02-25"},{"PERIAPSIS":"537.671","CLASSIFICATION_TYPE":"U","TLE_LINE1":"1 51787U 22017V   22324.56581168  .00001375  00000-0  10451-3 0  9993","GP_ID":"218361160","SITE":"AFWTR","MEAN_MOTION":"15.08841673","DECAY_DATE":null,"RCS_SIZE":"LARGE","MEAN_ANOMALY":"326.9746","LAUNCH_DATE":"2022-02-25","NORAD_CAT_ID":"51787","BSTAR":"0.00010451000000","TLE_LINE2":"2 51787  53.2181 359.1338 0002991  33.1433 326.9746 15.08841673 40341","ELEMENT_SET_NO":"999","INCLINATION":"53.2181","APOAPSIS":"541.809","REF_FRAME":"TEME","OBJECT_ID":"2022-017V","EPHEMERIS_TYPE":"0","ARG_OF_PERICENTER":"33.1433","RA_OF_ASC_NODE":"359.1338","TIME_SYSTEM":"UTC","REV_AT_EPOCH":"4034","ECCENTRICITY":"0.00029910","COUNTRY_CODE":"US","FILE":"3665715","MEAN_MOTION_DDOT":"0.0000000000000","MEAN_MOTION_DOT":"0.00001375","EPOCH":"2022-11-20T13:34:46.129152","OBJECT_NAME":"STARLINK-3619","SEMIMAJOR_AXIS":"6917.875","PERIOD":"95.437","CENTER_NAME":"EARTH","OBJECT_TYPE":"PAYLOAD","MEAN_ELEMENT_THEORY":"SGP4"},{"INCLINATION":"53.2175","REF_FRAME":"TEME","APOAPSIS":"541.515","NORAD_CAT_ID":"51788","LAUNCH_DATE":"2022-02-25","BSTAR":"-0.00000147700000","ELEMENT_SET_NO":"999","TLE_LINE2":"2 51788  53.2175 358.0695 0002533  33.1404 326.9746 15.08834208 42022","DECAY_DATE":null,"SITE":"AFWTR","MEAN_MOTION":"15.08834208","RCS_SIZE":"LARGE","MEAN_ANOMALY":"326.9746","PERIAPSIS":"538.011","GP_ID":"218361909","CLASSIFICATION_TYPE":"U","TLE_LINE1":"1 51788U 22017W   22324.80501609 -.00000312  00000-0 -14770-5 0  9995","OBJECT_TYPE":"PAYLOAD","MEAN_ELEMENT_THEORY":"SGP4","PERIOD":"95.438","MEAN_MOTION_DOT":"-0.00000312","MEAN_MOTION_DDOT":"0.0000000000000","EPOCH":"2022-11-20T19:19:13.390176","SEMIMAJOR_AXIS":"6917.898","OBJECT_NAME":"STARLINK-3641","CENTER_NAME":"EARTH","ECCENTRICITY":"0.00025330","REV_AT_EPOCH":"4202","TIME_SYSTEM":"UTC","FILE":"3665715","COUNTRY_CODE":"US","EPHEMERIS_TYPE":"0","ARG_OF_PERICENTER":"33.1404","OBJECT_ID":"2022-017W","RA_OF_ASC_NODE":"358.0695"},{"TLE_LINE2":"2 51789  53.2183 357.9939 0002892  31.2988 328.8176 15.08837222 40389","ELEMENT_SET_NO":"999","BSTAR":"0.00005670300000","LAUNCH_DATE":"2022-02-25","NORAD_CAT_ID":"51789","APOAPSIS":"541.755","REF_FRAME":"TEME","INCLINATION":"53.2183","CLASSIFICATION_TYPE":"U","TLE_LINE1":"1 51789U 22017X   22324.81973494  .00000614  00000-0  56703-4 0  9996","GP_ID":"218362161","PERIAPSIS":"537.753","MEAN_ANOMALY":"328.8176","RCS_SIZE":"LARGE","MEAN_MOTION":"15.08837222","SITE":"AFWTR","DECAY_DATE":null,"CENTER_NAME":"EARTH","SEMIMAJOR_AXIS":"6917.889","OBJECT_NAME":"STARLINK-3639","MEAN_MOTION_DDOT":"0.0000000000000","EPOCH":"2022-11-20T19:40:25.098816","MEAN_MOTION_DOT":"0.00000614","PERIOD":"95.438","MEAN_ELEMENT_THEORY":"SGP4","OBJECT_TYPE":"PAYLOAD","RA_OF_ASC_NODE":"357.9939","OBJECT_ID":"2022-017X","EPHEMERIS_TYPE":"0","ARG_OF_PERICENTER":"31.2988","COUNTRY_CODE":"US","FILE":"3665715","TIME_SYSTEM":"UTC","REV_AT_EPOCH":"4038","ECCENTRICITY":"0.00028920"},{"SEMIMAJOR_AXIS":"6917.881","OBJECT_NAME":"STARLINK-3631","MEAN_MOTION_DDOT":"0.0000000000000","EPOCH":"2022-11-20T19:13:54.509376","MEAN_MOTION_DOT":"-0.00000041","PERIOD":"95.438","CENTER_NAME":"EARTH","OBJECT_TYPE":"PAYLOAD","MEAN_ELEMENT_THEORY":"SGP4","OBJECT_ID":"2022-017Y","EPHEMERIS_TYPE":"0","ARG_OF_PERICENTER":"33.5435","RA_OF_ASC_NODE":"358.0893","TIME_SYSTEM":"UTC","ECCENTRICITY":"0.00026830","REV_AT_EPOCH":"4207","COUNTRY_CODE":"US","FILE":"3665715","LAUNCH_DATE":"2022-02-25","NORAD_CAT_ID":"51790","TLE_LINE2":"2 51790  53.2162 358.0893 0002683  33.5435 326.5727 15.08839641 42071","ELEMENT_SET_NO":"999","BSTAR":"0.00001555400000","INCLINATION":"53.2162","APOAPSIS":"541.603","REF_FRAME":"TEME","PERIAPSIS":"537.890","TLE_LINE1":"1 51790U 22017Y   22324.80132534 -.00000041  00000-0  15554-4 0  9993","CLASSIFICATION_TYPE":"U","GP_ID":"218362911","MEAN_MOTION":"15.08839641","SITE":"AFWTR","DECAY_DATE":null,"MEAN_ANOMALY":"326.5727","RCS_SIZE":"LARGE"},{"TIME_SYSTEM":"UTC","ECCENTRICITY":"0.00023470","REV_AT_EPOCH":"4202","COUNTRY_CODE":"US","FILE":"3665715","OBJECT_ID":"2022-017Z","EPHEMERIS_TYPE":"0","ARG_OF_PERICENTER":"32.5707","RA_OF_ASC_NODE":"358.0250","OBJECT_TYPE":"PAYLOAD","MEAN_ELEMENT_THEORY":"SGP4","SEMIMAJOR_AXIS":"6917.900","OBJECT_NAME":"STARLINK-3602","EPOCH":"2022-11-20T19:29:49.465248","MEAN_MOTION_DDOT":"0.0000000000000","MEAN_MOTION_DOT":"0.00000774","PERIOD":"95.438","CENTER_NAME":"EARTH","MEAN_MOTION":"15.08833718","SITE":"AFWTR","DECAY_DATE":null,"MEAN_ANOMALY":"327.5430","RCS_SIZE":"LARGE","PERIAPSIS":"538.141","TLE_LINE1":"1 51791U 22017Z   22324.81237807  .00000774  00000-0  66758-4 0  9998","CLASSIFICATION_TYPE":"U","GP_ID":"218361659","INCLINATION":"53.2181","APOAPSIS":"541.388","REF_FRAME":"TEME","LAUNCH_DATE":"2022-02-25","NORAD_CAT_ID":"51791","ELEMENT_SET_NO":"999","TLE_LINE2":"2 51791  53.2181 358.0250 0002347  32.5707 327.5430 15.08833718 42024","BSTAR":"0.00006675800000"},{"OBJECT_NAME":"STARLINK-3626","SEMIMAJOR_AXIS":"6917.869","EPOCH":"2022-11-20T19:03:18.575136","MEAN_MOTION_DDOT":"0.0000000000000","MEAN_MOTION_DOT":"0.00000659","PERIOD":"95.437","CENTER_NAME":"EARTH","OBJECT_TYPE":"PAYLOAD","MEAN_ELEMENT_THEORY":"SGP4","OBJECT_ID":"2022-017AA","ARG_OF_PERICENTER":"46.5646","EPHEMERIS_TYPE":"0","RA_OF_ASC_NODE":"358.1196","TIME_SYSTEM":"UTC","REV_AT_EPOCH":"4207","ECCENTRICITY":"0.00016650","COUNTRY_CODE":"US","FILE":"3665715","LAUNCH_DATE":"2022-02-25","NORAD_CAT_ID":"51792","ELEMENT_SET_NO":"999","TLE_LINE2":"2 51792  53.2175 358.1196 0001665  46.5646 313.5485 15.08843883 42071","BSTAR":"0.00005948100000","INCLINATION":"53.2175","APOAPSIS":"540.885","REF_FRAME":"TEME","PERIAPSIS":"538.582","TLE_LINE1":"1 51792U 22017AA  22324.79396499  .00000659  00000-0  59481-4 0  9996","CLASSIFICATION_TYPE":"U","GP_ID":"218361411","MEAN_MOTION":"15.08843883","SITE":"AFWTR","DECAY_DATE":null,"MEAN_ANOMALY":"313.5485","RCS_SIZE":"LARGE"},{"OBJECT_NAME":"STARLINK-3633","SEMIMAJOR_AXIS":"6917.889","EPOCH":"2022-11-20T19:24:30.912768","MEAN_MOTION_DDOT":"0.0000000000000","MEAN_MOTION_DOT":"0.00000679","PERIOD":"95.438","CENTER_NAME":"EARTH","OBJECT_TYPE":"PAYLOAD","MEAN_ELEMENT_THEORY":"SGP4","OBJECT_ID":"2022-017AB","ARG_OF_PERICENTER":"39.7977","EPHEMERIS_TYPE":"0","RA_OF_ASC_NODE":"358.0554","TIME_SYSTEM":"UTC","REV_AT_EPOCH":"4207","ECCENTRICITY":"0.00025570","COUNTRY_CODE":"US","FILE":"3665715","LAUNCH_DATE":"2022-02-25","NORAD_CAT_ID":"51793","TLE_LINE2":"2 51793  53.2190 358.0554 0002557  39.7977 320.3203 15.08837129 42078","ELEMENT_SET_NO":"999","BSTAR":"0.00006079500000","INCLINATION":"53.2190","APOAPSIS":"541.523","REF_FRAME":"TEME","PERIAPSIS":"537.985","TLE_LINE1":"1 51793U 22017AB  22324.80869112  .00000679  00000-0  60795-4 0  9998","CLASSIFICATION_TYPE":"U","GP_ID":"218362661","MEAN_MOTION":"15.08837129","SITE":"AFWTR","DECAY_DATE":null,"MEAN_ANOMALY":"320.3203","RCS_SIZE":"LARGE"},{"MEAN_ELEMENT_THEORY":"SGP4","OBJECT_TYPE":"PAYLOAD","CENTER_NAME":"EARTH","PERIOD":"95.438","SEMIMAJOR_AXIS":"6917.888","OBJECT_NAME":"STARLINK-3573","EPOCH":"2022-11-20T12:31:10.995456","MEAN_MOTION_DDOT":"0.0000000000000","MEAN_MOTION_DOT":"-0.00001004","FILE":"3664760","COUNTRY_CODE":"US","ECCENTRICITY":"0.00025490","REV_AT_EPOCH":"4198","TIME_SYSTEM":"UTC","RA_OF_ASC_NODE":"359.3367","ARG_OF_PERICENTER":"36.7779","EPHEMERIS_TYPE":"0","OBJECT_ID":"2022-017AC","REF_FRAME":"TEME","APOAPSIS":"541.517","INCLINATION":"53.2169","ELEMENT_SET_NO":"999","TLE_LINE2":"2 51794  53.2169 359.3367 0002549  36.7779 323.3387 15.08837458 41989","BSTAR":"-0.00004493600000","NORAD_CAT_ID":"51794","LAUNCH_DATE":"2022-02-25","MEAN_ANOMALY":"323.3387","RCS_SIZE":"LARGE","DECAY_DATE":null,"MEAN_MOTION":"15.08837458","SITE":"AFWTR","GP_ID":"218292633","TLE_LINE1":"1 51794U 22017AC  22324.52165504 -.00001004  00000-0 -44936-4 0  9996","CLASSIFICATION_TYPE":"U","PERIAPSIS":"537.990"},{"PERIAPSIS":"538.178","GP_ID":"218361161","TLE_LINE1":"1 51795U 22017AD  22324.79029888  .00002189  00000-0  15562-3 0  9995","CLASSIFICATION_TYPE":"U","DECAY_DATE":null,"MEAN_MOTION":"15.08837063","SITE":"AFWTR","MEAN_ANOMALY":"319.0567","RCS_SIZE":"LARGE","NORAD_CAT_ID":"51795","LAUNCH_DATE":"2022-02-25","TLE_LINE2":"2 51795  53.2171 358.1311 0002279  41.0597 319.0567 15.08837063 42026","ELEMENT_SET_NO":"999","BSTAR":"0.00015562000000","INCLINATION":"53.2171","REF_FRAME":"TEME","APOAPSIS":"541.331","EPHEMERIS_TYPE":"0","ARG_OF_PERICENTER":"41.0597","OBJECT_ID":"2022-017AD","RA_OF_ASC_NODE":"358.1311","REV_AT_EPOCH":"4202","ECCENTRICITY":"0.00022790","TIME_SYSTEM":"UTC","FILE":"3665715","COUNTRY_CODE":"US","PERIOD":"95.438","OBJECT_NAME":"STARLINK-3586","SEMIMAJOR_AXIS":"6917.889","MEAN_MOTION_DDOT":"0.0000000000000","EPOCH":"2022-11-20T18:58:01.823232","MEAN_MOTION_DOT":"0.00002189","CENTER_NAME":"EARTH","OBJECT_TYPE":"PAYLOAD","MEAN_ELEMENT_THEORY":"SGP4"}];
